ORBCOMM FM103           
1 40091U 14040F   24129.71333576  .00001023  00000+0  26488-3 0  9992
2 40091  47.0047 125.6703 0002418 243.5833 116.4804 14.56551347505101
ORBCOMM FM114           
1 41179U 15081A   24129.81553540  .00001275  00000+0  32082-3 0  9998
2 41179  47.0041  34.4712 0001977 288.6465  71.4205 14.56579278445482
ORBCOMM FM119           
1 41180U 15081B   24129.78562861  .00001099  00000+0  28177-3 0  9996
2 41180  47.0010 303.8023 0001355 328.0903  31.9899 14.56540563446738
ORBCOMM FM105           
1 41181U 15081C   24129.67729725  .00000576  00000+0  21115-3 0  9993
2 41181  47.0011 271.0603 0002254 293.2674  66.7968 14.44365851442255
ORBCOMM FM110           
1 41182U 15081D   24129.86138857  .00001389  00000+0  34609-3 0  9990
2 41182  47.0031  33.6640 0001341 110.8534 249.2495 14.56571534445364
ORBCOMM FM118           
1 41183U 15081E   24129.83875086  .00001406  00000+0  34998-3 0  9991
2 41183  47.0053  34.0765 0001385 106.4193 253.6844 14.56559696445465
ORBCOMM FM112           
1 41184U 15081F   24129.62575719  .00001352  00000+0  33777-3 0  9993
2 41184  46.9992 303.7729 0001241 300.8342  59.2421 14.56581970446652
ORBCOMM FM113           
1 41185U 15081G   24129.74011875  .00001401  00000+0  34867-3 0  9991
2 41185  47.0010 303.5003 0000795 311.3739  48.7077 14.56576727446653
